{"type": "FeatureCollection", "features": [ {"type": "Feature", "properties": {"norad_id": 38552, "name": "METEOSAT-10 (MSG-3)", "group": "weather", "lat": -4.226866333017873, "lon": -26.999266189181135, "alt_km": 35782.92672529132, "timestamp": "2025-12-09T16:56:36.222412+00:00", "meta": {"OBJECT_NAME": "METEOSAT-10 (MSG-3)", "OBJECT_ID": "2012-035B", "EPOCH": "2025-12-09T01:35:17.617632", "MEAN_MOTION": 1.0027383, "ECCENTRICITY": 8.734e-05, "INCLINATION": 4.2204, "RA_OF_ASC_NODE": 61.7307, "ARG_OF_PERICENTER": 239.048, "MEAN_ANOMALY": 161.2485, "EPHEMERIS_TYPE": 0, "CLASSIFICATION_TYPE": "U", "NORAD_CAT_ID": 38552, "ELEMENT_SET_NO": 999, "REV_AT_EPOCH": 4895, "BSTAR": 0, "MEAN_MOTION_DOT": -5e-08, "MEAN_MOTION_DDOT": 0}, "tle": {"line1": "1 38552U 12035B   25343.06617613 -.00000005  00000+0  00000+0 0  9995", "line2": "2 38552   4.2204  61.7307 0000873 239.0480 161.2485  1.00273830 48952"}}, "geometry": {"type": "Point", "coordinates": [-26.999266189181135, -4.226866333017873]}}, {"type": "Feature", "properties": {"norad_id": 38771, "name": "METOP-B", "group": "weather", "lat": 51.645119248991534, "lon": 22.584749032521522, "alt_km": 816.0465145900598, "timestamp": "2025-12-09T16:56:36.222424+00:00", "meta": {"OBJECT_NAME": "METOP-B", "OBJECT_ID": "2012-049A", "EPOCH": "2025-12-09T09:56:22.317216", "MEAN_MOTION": 14.21406685, "ECCENTRICITY": 0.0002773, "INCLINATION": 98.6804, "RA_OF_ASC_NODE": 33.4292, "ARG_OF_PERICENTER": 151.3308, "MEAN_ANOMALY": 208.8023, "EPHEMERIS_TYPE": 0, "CLASSIFICATION_TYPE": "U", "NORAD_CAT_ID": 38771, "ELEMENT_SET_NO": 999, "REV_AT_EPOCH": 68630, "BSTAR": 0.00014383, "MEAN_MOTION_DOT": 2.71e-06, "MEAN_MOTION_DDOT": 0}, "tle": {"line1": "1 38771U 12049A   25343.41414719  .00000271  00000+0  14383-3 0  9991", "line2": "2 38771  98.6804  33.4292 0002773 151.3308 208.8023 14.21406685686309"}}, "geometry": {"type": "Point", "coordinates": [22.584749032521522, 51.645119248991534]}}, {"type": "Feature", "properties": {"norad_id": 39216, "name": "INSAT-3D", "group": "weather", "lat": 0.44704556399008516, "lon": 102.37111054341669, "alt_km": 35791.941455324115, "timestamp": "2025-12-09T16:56:36.222436+00:00", "meta": {"OBJECT_NAME": "INSAT-3D", "OBJECT_ID": "2013-038B", "EPOCH": "2025-12-09T10:45:53.818848", "MEAN_MOTION": 1.00271235, "ECCENTRICITY": 0.0001645, "INCLINATION": 1.4366, "RA_OF_ASC_NODE": 85.0219, "ARG_OF_PERICENTER": 162.5394, "MEAN_ANOMALY": 121.8979, "EPHEMERIS_TYPE": 0, "CLASSIFICATION_TYPE": "U", "NORAD_CAT_ID": 39216, "ELEMENT_SET_NO": 999, "REV_AT_EPOCH": 4517, "BSTAR": 0, "MEAN_MOTION_DOT": -3.37e-06, "MEAN_MOTION_DDOT": 0}, "tle": {"line1": "1 39216U 13038B   25343.44853957 -.00000337  00000+0  00000+0 0  9990", "line2": "2 39216   1.4366  85.0219 0001645 162.5394 121.8979  1.00271235 45179"}}, "geometry": {"type": "Point", "coordinates": [102.37111054341669, 0.44704556399008516]}}, {"type": "Feature", "properties": {"norad_id": 39260, "name": "FENGYUN 3C", "group": "weather", "lat": 1.8755912034933104, "lon": -38.74627443065121, "alt_km": 851.9821021302987, "timestamp": "2025-12-09T16:56:36.222447+00:00", "meta": {"OBJECT_NAME": "FENGYUN 3C", "OBJECT_ID": "2013-052A", "EPOCH": "2025-12-09T11:50:44.574144", "MEAN_MOTION": 14.15694853, "ECCENTRICITY": 0.0014101, "INCLINATION": 98.476, "RA_OF_ASC_NODE": 321.3315, "ARG_OF_PERICENTER": 205.6735, "MEAN_ANOMALY": 154.3741, "EPHEMERIS_TYPE": 0, "CLASSIFICATION_TYPE": "U", "NORAD_CAT_ID": 39260, "ELEMENT_SET_NO": 999, "REV_AT_EPOCH": 63172, "BSTAR": 0.00013563, "MEAN_MOTION_DOT": 2.25e-06, "MEAN_MOTION_DDOT": 0}, "tle": {"line1": "1 39260U 13052A   25343.49357146  .00000225  00000+0  13563-3 0  9996", "line2": "2 39260  98.4760 321.3315 0014101 205.6735 154.3741 14.15694853631729"}}, "geometry": {"type": "Point", "coordinates": [-38.74627443065121, 1.8755912034933104]}}, {"type": "Feature", "properties": {"norad_id": 40069, "name": "METEOR-M 2", "group": "weather", "lat": -75.94296810050905, "lon": -1.9708800531716877, "alt_km": 826.2966548759359, "timestamp": "2025-12-09T16:56:36.222458+00:00", "meta": {"OBJECT_NAME": "METEOR-M 2", "OBJECT_ID": "2014-037A", "EPOCH": "2025-12-09T12:14:42.474912", "MEAN_MOTION": 14.21383681, "ECCENTRICITY": 0.000482, "INCLINATION": 98.4899, "RA_OF_ASC_NODE": 321.2181, "ARG_OF_PERICENTER": 220.9544, "MEAN_ANOMALY": 139.1272, "EPHEMERIS_TYPE": 0, "CLASSIFICATION_TYPE": "U", "NORAD_CAT_ID": 40069, "ELEMENT_SET_NO": 999, "REV_AT_EPOCH": 59237, "BSTAR": 7.76e-05, "MEAN_MOTION_DOT": 1.27e-06, "MEAN_MOTION_DDOT": 0}, "tle": {"line1": "1 40069U 14037A   25343.51021383  .00000127  00000+0  77600-4 0  9997", "line2": "2 40069  98.4899 321.2181 0004820 220.9544 139.1272 14.21383681592374"}}, "geometry": {"type": "Point", "coordinates": [-1.9708800531716877, -75.94296810050905]}}, {"type": "Feature", "properties": {"norad_id": 40267, "name": "HIMAWARI-8", "group": "weather", "lat": -0.005591173494848561, "lon": 113.50246632193486, "alt_km": 35791.7244545779, "timestamp": "2025-12-09T16:56:36.222470+00:00", "meta": {"OBJECT_NAME": "HIMAWARI-8", "OBJECT_ID": "2014-060A", "EPOCH": "2025-12-09T10:49:08.509152", "MEAN_MOTION": 1.00270631, "ECCENTRICITY": 0.0001255, "INCLINATION": 0.0331, "RA_OF_ASC_NODE": 217.3185, "ARG_OF_PERICENTER": 79.7714, "MEAN_ANOMALY": 84.2991, "EPHEMERIS_TYPE": 0, "CLASSIFICATION_TYPE": "U", "NORAD_CAT_ID": 40267, "ELEMENT_SET_NO": 999, "REV_AT_EPOCH": 4085, "BSTAR": 0, "MEAN_MOTION_DOT": -2.73e-06, "MEAN_MOTION_DDOT": 0}, "tle": {"line1": "1 40267U 14060A   25343.45079293 -.00000273  00000+0  00000+0 0  9997", "line2": "2 40267   0.0331 217.3185 0001255  79.7714  84.2991  1.00270631 40853"}}, "geometry": {"type": "Point", "coordinates": [113.50246632193486, -0.005591173494848561]}}, {"type": "Feature", "properties": {"norad_id": 40367, "name": "FENGYUN 2G", "group": "weather", "lat": -0.2204674597436994, "lon": 72.47183596961742, "alt_km": 35800.24761590784, "timestamp": "2025-12-09T16:56:36.222482+00:00", "meta": {"OBJECT_NAME": "FENGYUN 2G", "OBJECT_ID": "2014-090A", "EPOCH": "2025-12-08T17:30:10.330272", "MEAN_MOTION": 1.00265504, "ECCENTRICITY": 0.0003085, "INCLINATION": 5.1581, "RA_OF_ASC_NODE": 75.1439, "ARG_OF_PERICENTER": 197.6958, "MEAN_ANOMALY": 167.0613, "EPHEMERIS_TYPE": 0, "CLASSIFICATION_TYPE": "U", "NORAD_CAT_ID": 40367, "ELEMENT_SET_NO": 999, "REV_AT_EPOCH": 4009, "BSTAR": 0, "MEAN_MOTION_DOT": -3e-06, "MEAN_MOTION_DDOT": 0}, "tle": {"line1": "1 40367U 14090A   25342.72928623 -.00000300  00000+0  00000+0 0  9991", "line2": "2 40367   5.1581  75.1439 0003085 197.6958 167.0613  1.00265504 40092"}}, "geometry": {"type": "Point", "coordinates": [72.47183596961742, -0.2204674597436994]}}, {"type": "Feature", "properties": {"norad_id": 40732, "name": "METEOSAT-11 (MSG-4)", "group": "weather", "lat": -2.7297244799533638, "lon": -17.808470806079058, "alt_km": 35791.37657361572, "timestamp": "2025-12-09T16:56:36.222494+00:00", "meta": {"OBJECT_NAME": "METEOSAT-11 (MSG-4)", "OBJECT_ID": "2015-034A", "EPOCH": "2025-12-09T05:03:28.023264", "MEAN_MOTION": 1.00266394, "ECCENTRICITY": 9.7e-05, "INCLINATION": 2.7265, "RA_OF_ASC_NODE": 72.0117, "ARG_OF_PERICENTER": 121.8112, "MEAN_ANOMALY": 329.5993, "EPHEMERIS_TYPE": 0, "CLASSIFICATION_TYPE": "U", "NORAD_CAT_ID": 40732, "ELEMENT_SET_NO": 999, "REV_AT_EPOCH": 531, "BSTAR": 0, "MEAN_MOTION_DOT": 6.3e-07, "MEAN_MOTION_DDOT": 0}, "tle": {"line1": "1 40732U 15034A   25343.21074101  .00000063  00000+0  00000+0 0  9999", "line2": "2 40732   2.7265  72.0117 0000970 121.8112 329.5993  1.00266394  5310"}}, "geometry": {"type": "Point", "coordinates": [-17.808470806079058, -2.7297244799533638]}}, {"type": "Feature", "properties": {"norad_id": 41105, "name": "ELEKTRO-L 2", "group": "weather", "lat": -5.668794022515345, "lon": -41.753033383348196, "alt_km": 35775.661140707074, "timestamp": "2025-12-09T16:56:36.222505+00:00", "meta": {"OBJECT_NAME": "ELEKTRO-L 2", "OBJECT_ID": "2015-074A", "EPOCH": "2025-12-09T01:31:10.511904", "MEAN_MOTION": 1.00271905, "ECCENTRICITY": 0.00038363, "INCLINATION": 6.2161, "RA_OF_ASC_NODE": 72.8685, "ARG_OF_PERICENTER": 198.9202, "MEAN_ANOMALY": 174.5582, "EPHEMERIS_TYPE": 0, "CLASSIFICATION_TYPE": "U", "NORAD_CAT_ID": 41105, "ELEMENT_SET_NO": 999, "REV_AT_EPOCH": 3660, "BSTAR": 0, "MEAN_MOTION_DOT": -1.16e-06, "MEAN_MOTION_DDOT": 0}, "tle": {"line1": "1 41105U 15074A   25343.06331611 -.00000116  00000+0  00000+0 0  9993", "line2": "2 41105   6.2161  72.8685 0003836 198.9202 174.5582  1.00271905 36608"}}, "geometry": {"type": "Point", "coordinates": [-41.753033383348196, -5.668794022515345]}}, {"type": "Feature", "properties": {"norad_id": 41752, "name": "INSAT-3DR", "group": "weather", "lat": -0.03320778364626451, "lon": 46.9605180499671, "alt_km": 35831.240306073756, "timestamp": "2025-12-09T16:56:36.222518+00:00", "meta": {"OBJECT_NAME": "INSAT-3DR", "OBJECT_ID": "2016-054A", "EPOCH": "2025-12-09T10:30:02.839104", "MEAN_MOTION": 1.00270349, "ECCENTRICITY": 0.0014506, "INCLINATION": 0.0839, "RA_OF_ASC_NODE": 86.627, "ARG_OF_PERICENTER": 183.5794, "MEAN_ANOMALY": 39.7407, "EPHEMERIS_TYPE": 0, "CLASSIFICATION_TYPE": "U", "NORAD_CAT_ID": 41752, "ELEMENT_SET_NO": 999, "REV_AT_EPOCH": 3391, "BSTAR": 0, "MEAN_MOTION_DOT": -7.5e-07, "MEAN_MOTION_DDOT": 0}, "tle": {"line1": "1 41752U 16054A   25343.43753286 -.00000075  00000+0  00000+0 0  9991", "line2": "2 41752   0.0839  86.6270 0014506 183.5794  39.7407  1.00270349 33915"}}, "geometry": {"type": "Point", "coordinates": [46.9605180499671, -0.03320778364626451]}}]}